[{"OBJECT_NAME":"FENGYUN 2B","OBJECT_ID":"2000-032A","EPOCH":"2026-03-07T00:23:53.236896","MEAN_MOTION":1.0008163,"ECCENTRICITY":0.00040469,"INCLINATION":13.1711,"RA_OF_ASC_NODE":17.6546,"ARG_OF_PERICENTER":293.7256,"MEAN_ANOMALY":255.6568,"EPHEMERIS_TYPE":0,"CLASSIFICATION_TYPE":"U","NORAD_CAT_ID":26382,"ELEMENT_SET_NO":999,"REV_AT_EPOCH":9390,"BSTAR":0,"MEAN_MOTION_DOT":1.24e-6,"MEAN_MOTION_DDOT":0},{"OBJECT_NAME":"TDRS 8","OBJECT_ID":"2000-034A","EPOCH":"2026-03-07T14:06:31.226688","MEAN_MOTION":1.00275904,"ECCENTRICITY":0.00061452,"INCLINATION":12.5241,"RA_OF_ASC_NODE":32.1691,"ARG_OF_PERICENTER":309.7251,"MEAN_ANOMALY":119.83,"EPHEMERIS_TYPE":0,"CLASSIFICATION_TYPE":"U","NORAD_CAT_ID":26388,"ELEMENT_SET_NO":999,"REV_AT_EPOCH":9416,"BSTAR":0,"MEAN_MOTION_DOT":-1.96e-6,"MEAN_MOTION_DDOT":0},{"OBJECT_NAME":"COSMOS 2371","OBJECT_ID":"2000-036A","EPOCH":"2026-03-06T21:27:21.811680","MEAN_MOTION":1.00263775,"ECCENTRICITY":0.00019921,"INCLINATION":13.9365,"RA_OF_ASC_NODE":8.2677,"ARG_OF_PERICENTER":213.4424,"MEAN_ANOMALY":336.7091,"EPHEMERIS_TYPE":0,"CLASSIFICATION_TYPE":"U","NORAD_CAT_ID":26394,"ELEMENT_SET_NO":999,"REV_AT_EPOCH":9401,"BSTAR":0,"MEAN_MOTION_DOT":-8.0e-7,"MEAN_MOTION_DDOT":0},{"OBJECT_NAME":"SL-12 R/B(2)","OBJECT_ID":"2000-036D","EPOCH":"2026-03-07T00:17:31.347168","MEAN_MOTION":1.0019199,"ECCENTRICITY":0.00161132,"INCLINATION":13.906,"RA_OF_ASC_NODE":8.1458,"ARG_OF_PERICENTER":71.4884,"MEAN_ANOMALY":102.9708,"EPHEMERIS_TYPE":0,"CLASSIFICATION_TYPE":"U","NORAD_CAT_ID":26397,"ELEMENT_SET_NO":999,"REV_AT_EPOCH":4630,"BSTAR":0,"MEAN_MOTION_DOT":4.9e-7,"MEAN_MOTION_DDOT":0},{"OBJECT_NAME":"FENGYUN 2B AKM","OBJECT_ID":"2000-032C","EPOCH":"2026-03-06T01:27:25.511616","MEAN_MOTION":1.00193709,"ECCENTRICITY":0.00227107,"INCLINATION":14.3792,"RA_OF_ASC_NODE":7.0426,"ARG_OF_PERICENTER":35.0941,"MEAN_ANOMALY":325.051,"EPHEMERIS_TYPE":0,"CLASSIFICATION_TYPE":"U","NORAD_CAT_ID":26460,"ELEMENT_SET_NO":999,"REV_AT_EPOCH":12115,"BSTAR":0,"MEAN_MOTION_DOT":1.9e-7,"MEAN_MOTION_DDOT":0},{"OBJECT_NAME":"RADUGA-1 5","OBJECT_ID":"2000-049A","EPOCH":"2026-03-07T07:33:27.049824","MEAN_MOTION":1.00242619,"ECCENTRICITY":0.00014064,"INCLINATION":13.9098,"RA_OF_ASC_NODE":8.8207,"ARG_OF_PERICENTER":18.0056,"MEAN_ANOMALY":353.9624,"EPHEMERIS_TYPE":0,"CLASSIFICATION_TYPE":"U","NORAD_CAT_ID":26477,"ELEMENT_SET_NO":999,"REV_AT_EPOCH":9340,"BSTAR":0,"MEAN_MOTION_DOT":-3.29e-6,"MEAN_MOTION_DDOT":0},{"OBJECT_NAME":"NSS-11","OBJECT_ID":"2000-059A","EPOCH":"2026-03-07T13:33:38.478816","MEAN_MOTION":1.00273135,"ECCENTRICITY":0.00031877,"INCLINATION":1.8638,"RA_OF_ASC_NODE":82.6324,"ARG_OF_PERICENTER":274.8018,"MEAN_ANOMALY":187.2438,"EPHEMERIS_TYPE":0,"CLASSIFICATION_TYPE":"U","NORAD_CAT_ID":26554,"ELEMENT_SET_NO":999,"REV_AT_EPOCH":4027,"BSTAR":0,"MEAN_MOTION_DOT":2.4e-7,"MEAN_MOTION_DDOT":0},{"OBJECT_NAME":"USA 153","OBJECT_ID":"2000-065A","EPOCH":"2026-03-07T06:00:06.001344","MEAN_MOTION":1.00269147,"ECCENTRICITY":0.00026857,"INCLINATION":11.4502,"RA_OF_ASC_NODE":36.2488,"ARG_OF_PERICENTER":348.5736,"MEAN_ANOMALY":4.533,"EPHEMERIS_TYPE":0,"CLASSIFICATION_TYPE":"U","NORAD_CAT_ID":26575,"ELEMENT_SET_NO":999,"REV_AT_EPOCH":3190,"BSTAR":0,"MEAN_MOTION_DOT":-3.27e-6,"MEAN_MOTION_DDOT":0},{"OBJECT_NAME":"AMC-6","OBJECT_ID":"2000-067A","EPOCH":"2026-03-07T12:33:38.603808","MEAN_MOTION":1.00273323,"ECCENTRICITY":0.00030928,"INCLINATION":0.0456,"RA_OF_ASC_NODE":329.4347,"ARG_OF_PERICENTER":21.6887,"MEAN_ANOMALY":227.4517,"EPHEMERIS_TYPE":0,"CLASSIFICATION_TYPE":"U","NORAD_CAT_ID":26580,"ELEMENT_SET_NO":999,"REV_AT_EPOCH":9287,"BSTAR":0,"MEAN_MOTION_DOT":8.7e-7,"MEAN_MOTION_DDOT":0},{"OBJECT_NAME":"USA 157 (MILSTAR-2 2)","OBJECT_ID":"2001-009A","EPOCH":"2026-03-07T05:59:38.573664","MEAN_MOTION":1.00268007,"ECCENTRICITY":0.00378982,"INCLINATION":11.4308,"RA_OF_ASC_NODE":20.3846,"ARG_OF_PERICENTER":181.7089,"MEAN_ANOMALY":262.7847,"EPHEMERIS_TYPE":0,"CLASSIFICATION_TYPE":"U","NORAD_CAT_ID":26715,"ELEMENT_SET_NO":999,"REV_AT_EPOCH":3192,"BSTAR":0,"MEAN_MOTION_DOT":1.09e-6,"MEAN_MOTION_DDOT":0},{"OBJECT_NAME":"TITAN 4 CENTAUR R/B","OBJECT_ID":"2001-009B","EPOCH":"2026-03-06T17:25:55.636032","MEAN_MOTION":1.00474069,"ECCENTRICITY":0.00134234,"INCLINATION":12.5494,"RA_OF_ASC_NODE":13.0233,"ARG_OF_PERICENTER":145.0825,"MEAN_ANOMALY":215.009,"EPHEMERIS_TYPE":0,"CLASSIFICATION_TYPE":"U","NORAD_CAT_ID":26716,"ELEMENT_SET_NO":999,"REV_AT_EPOCH":2522,"BSTAR":0,"MEAN_MOTION_DOT":-2.98e-6,"MEAN_MOTION_DDOT":0},{"OBJECT_NAME":"USA 159 (DSP 21)","OBJECT_ID":"2001-033A","EPOCH":"2026-03-05T04:30:26.664768","MEAN_MOTION":1.00277103,"ECCENTRICITY":0.0002404,"INCLINATION":12.69,"RA_OF_ASC_NODE":17.1643,"ARG_OF_PERICENTER":222.2157,"MEAN_ANOMALY":302.1868,"EPHEMERIS_TYPE":0,"CLASSIFICATION_TYPE":"U","NORAD_CAT_ID":26880,"ELEMENT_SET_NO":999,"REV_AT_EPOCH":3192,"BSTAR":0,"MEAN_MOTION_DOT":-3.02e-6,"MEAN_MOTION_DDOT":0},{"OBJECT_NAME":"IUS R/B(2)","OBJECT_ID":"2001-033D","EPOCH":"2026-03-06T15:04:44.760576","MEAN_MOTION":0.99904149,"ECCENTRICITY":0.0007047,"INCLINATION":12.8244,"RA_OF_ASC_NODE":17.4406,"ARG_OF_PERICENTER":1.9652,"MEAN_ANOMALY":358.0413,"EPHEMERIS_TYPE":0,"CLASSIFICATION_TYPE":"U","NORAD_CAT_ID":26883,"ELEMENT_SET_NO":999,"REV_AT_EPOCH":2476,"BSTAR":0,"MEAN_MOTION_DOT":-1.83e-6,"MEAN_MOTION_DDOT":0},{"OBJECT_NAME":"COSMOS 2379","OBJECT_ID":"2001-037A","EPOCH":"2026-03-07T14:26:43.293408","MEAN_MOTION":1.00320576,"ECCENTRICITY":0.00063024,"INCLINATION":13.1764,"RA_OF_ASC_NODE":15.0168,"ARG_OF_PERICENTER":245.9293,"MEAN_ANOMALY":246.025,"EPHEMERIS_TYPE":0,"CLASSIFICATION_TYPE":"U","NORAD_CAT_ID":26892,"ELEMENT_SET_NO":999,"REV_AT_EPOCH":8984,"BSTAR":0,"MEAN_MOTION_DOT":-3.64e-6,"MEAN_MOTION_DDOT":0},{"OBJECT_NAME":"SL-12 R/B(2)","OBJECT_ID":"2001-037D","EPOCH":"2026-03-07T14:10:55.407648","MEAN_MOTION":1.00195654,"ECCENTRICITY":0.00193239,"INCLINATION":13.1707,"RA_OF_ASC_NODE":15.2419,"ARG_OF_PERICENTER":77.0977,"MEAN_ANOMALY":21.5556,"EPHEMERIS_TYPE":0,"CLASSIFICATION_TYPE":"U","NORAD_CAT_ID":26895,"ELEMENT_SET_NO":999,"REV_AT_EPOCH":8978,"BSTAR":0,"MEAN_MOTION_DOT":-2.77e-6,"MEAN_MOTION_DDOT":0},{"OBJECT_NAME":"INTELSAT 902 (IS-902)","OBJECT_ID":"2001-039A","EPOCH":"2026-03-07T07:02:38.643648","MEAN_MOTION":1.0027146,"ECCENTRICITY":0.00046023,"INCLINATION":5.86,"RA_OF_ASC_NODE":73.0233,"ARG_OF_PERICENTER":275.2606,"MEAN_ANOMALY":232.285,"EPHEMERIS_TYPE":0,"CLASSIFICATION_TYPE":"U","NORAD_CAT_ID":26900,"ELEMENT_SET_NO":999,"REV_AT_EPOCH":8967,"BSTAR":0,"MEAN_MOTION_DOT":-2.84e-6,"MEAN_MOTION_DDOT":0},{"OBJECT_NAME":"SL-12 R/B(2)","OBJECT_ID":"2001-045D","EPOCH":"2026-03-06T22:08:51.840672","MEAN_MOTION":1.00209419,"ECCENTRICITY":0.0025864,"INCLINATION":13.81,"RA_OF_ASC_NODE":12.8552,"ARG_OF_PERICENTER":24.9293,"MEAN_ANOMALY":178.9757,"EPHEMERIS_TYPE":0,"CLASSIFICATION_TYPE":"U","NORAD_CAT_ID":26939,"ELEMENT_SET_NO":999,"REV_AT_EPOCH":8970,"BSTAR":0,"MEAN_MOTION_DOT":-1.42e-6,"MEAN_MOTION_DDOT":0}]
