FENGYUN 2B              
1 26382U 00032A   26066.01658839  .00000124  00000+0  00000+0 0  9991
2 26382  13.1711  17.6546 0004046 293.7256 255.6568  1.00081630 93901
TDRS 8                  
1 26388U 00034A   26066.58786142 -.00000196  00000+0  00000+0 0  9990
2 26388  12.5241  32.1691 0006145 309.7251 119.8300  1.00275904 94169
COSMOS 2371             
1 26394U 00036A   26065.89400245 -.00000080  00000+0  00000+0 0  9991
2 26394  13.9365   8.2677 0001992 213.4424 336.7091  1.00263775 94018
SL-12 R/B(2)            
1 26397U 00036D   26066.01216837  .00000049  00000+0  00000+0 0  9995
2 26397  13.9060   8.1458 0016113  71.4884 102.9708  1.00191990 46308
FENGYUN 2B AKM          
1 26460U 00032C   26065.06071194  .00000019  00000+0  00000+0 0  9998
2 26460  14.3792   7.0426 0022710  35.0941 325.0510  1.00193709121155
RADUGA-1 5              
1 26477U 00049A   26066.31489641 -.00000329  00000+0  00000+0 0  9998
2 26477  13.9098   8.8207 0001406  18.0056 353.9624  1.00242619 93407
NSS-11                  
1 26554U 00059A   26066.56502869  .00000024  00000+0  00000+0 0  9991
2 26554   1.8638  82.6324 0003187 274.8018 187.2438  1.00273135 40272
USA 153                 
1 26575U 00065A   26066.25006946 -.00000327  00000+0  00000+0 0  9999
2 26575  11.4502  36.2488 0002685 348.5736   4.5330  1.00269147 31906
AMC-6                   
1 26580U 00067A   26066.52336347  .00000087  00000+0  00000+0 0  9990
2 26580   0.0456 329.4347 0003092  21.6887 227.4517  1.00273323 92871
USA 157 (MILSTAR-2 2)   
1 26715U 01009A   26066.24975201  .00000109  00000+0  00000+0 0  9999
2 26715  11.4308  20.3846 0037898 181.7089 262.7847  1.00268007 31927
TITAN 4 CENTAUR R/B     
1 26716U 01009B   26065.72633838 -.00000298  00000+0  00000+0 0  9999
2 26716  12.5494  13.0233 0013423 145.0825 215.0090  1.00474069 25228
USA 159 (DSP 21)        
1 26880U 01033A   26064.18780862 -.00000302  00000+0  00000+0 0  9993
2 26880  12.6900  17.1643 0002404 222.2157 302.1868  1.00277103 31921
IUS R/B(2)              
1 26883U 01033D   26065.62829584 -.00000183  00000+0  00000+0 0  9998
2 26883  12.8244  17.4406 0007047   1.9652 358.0413  0.99904149 24761
COSMOS 2379             
1 26892U 01037A   26066.60188997 -.00000364  00000+0  00000+0 0  9998
2 26892  13.1764  15.0168 0006302 245.9293 246.0250  1.00320576 89849
SL-12 R/B(2)            
1 26895U 01037D   26066.59091907 -.00000277  00000+0  00000+0 0  9996
2 26895  13.1707  15.2419 0019323  77.0977  21.5556  1.00195654 89785
INTELSAT 902 (IS-902)   
1 26900U 01039A   26066.29350282 -.00000284  00000+0  00000+0 0  9994
2 26900   5.8600  73.0233 0004602 275.2606 232.2850  1.00271460 89679
SL-12 R/B(2)            
1 26939U 01045D   26065.92282223 -.00000142  00000+0  00000+0 0  9994
2 26939  13.8100  12.8552 0025864  24.9293 178.9757  1.00209419 89705
